NORAD_CAT_ID,OBJECT_NAME,OBJECT_TYPE,EPOCH,MEAN_MOTION,ECCENTRICITY,INCLINATION,RA_OF_ASC_NODE,ARG_OF_PERICENTER,MEAN_ANOMALY,BSTAR,MEAN_MOTION_DOT,MEAN_MOTION_DDOT,TLE_LINE0,TLE_LINE1,TLE_LINE2,SEMIMAJOR_AXIS,PERIOD,APOGEE,PERIGEE,DECAYED
52625.0,STARLINK-3988,PAYLOAD,2022-05-20 16:00:00,15.80410606,0.0001014,53.2168,50.8406,78.8403,325.5607,-0.004429,-0.00782718,0.0,0 STARLINK-3988,1 52625U 22052AD  22140.66667824 -.00782718  00000-0 -44290-2 0  9991,2 52625  53.2168  50.8406 0001014  78.8403 325.5607 15.80410606  1309,6707.416,91.116,329.961,328.6,0.0
52625.0,STARLINK-3988,PAYLOAD,2022-05-21 20:00:01,15.7827905,0.0001206,53.2178,45.0142,89.2517,112.3271,-0.005525,-0.0087587999999999,0.0,0 STARLINK-3988,1 52625U 22052AD  22141.83334491 -.00875880  00000-0 -55250-2 0  9993,2 52625  53.2178  45.0142 0001206  89.2517 112.3271 15.78279050  1489,6713.453,91.239,336.1280000000001,334.509,0.0
52625.0,STARLINK-3988,PAYLOAD,2022-05-21 22:00:00,15.78122291,0.000106,53.2176,44.5994,90.6778,224.6328,-0.0055736999999999,-0.00877158,0.0,0 STARLINK-3988,1 52625U 22052AD  22141.91667824 -.00877158  00000-0 -55737-2 0  9991,2 52625  53.2176  44.5994 0001060  90.6778 224.6328 15.78122291  1304,6713.898,91.248,336.475,335.051,0.0
52625.0,STARLINK-3988,PAYLOAD,2022-05-22 14:00:01,15.76862256,0.0001102,53.2172,41.2779,92.1036,51.3643,-0.0058778,-0.00874329,0.0,0 STARLINK-3988,1 52625U 22052AD  22142.58334491 -.00874329  00000-0 -58778-2 0  9991,2 52625  53.2172  41.2779 0001102  92.1036  51.3643 15.76862256  1301,6717.474,91.321,340.079,338.599,0.0
52625.0,STARLINK-3988,PAYLOAD,2022-05-22 20:00:01,15.76391145,0.000111,53.2174,40.0353,84.6274,38.6185,-0.0060122,-0.00875582,0.0,0 STARLINK-3988,1 52625U 22052AD  22142.83334491 -.00875582  00000-0 -60122-2 0  9997,2 52625  53.2174  40.0353 0001110  84.6274  38.6185 15.76391145  1647,6718.812,91.348,341.423,339.932,0.0
52625.0,STARLINK-3988,PAYLOAD,2022-05-22 22:00:01,15.76231807,0.0001189,53.2174,39.6216,90.2719,146.2052,-0.0060315,-0.00872536,0.0,0 STARLINK-3988,1 52625U 22052AD  22142.91668981 -.00872536  00000-0 -60315-2 0  9990,2 52625  53.2174  39.6216 0001189  90.2719 146.2052 15.76231807  1302,6719.265,91.357,341.9290000000001,340.331,0.0
52625.0,STARLINK-3988,PAYLOAD,2022-05-23 14:00:01,15.74973849,0.0001012,53.2173,36.3093,110.0245,310.0065,-0.0063861,-0.00873688,0.0,0 STARLINK-3988,1 52625U 22052AD  22143.58334491 -.00873688  00000-0 -63861-2 0  9998,2 52625  53.2173  36.3093 0001012 110.0245 310.0065 15.74973849  1300,6722.843000000003,91.43,345.38800000000015,344.027,0.0
52625.0,STARLINK-3988,PAYLOAD,2022-05-23 20:00:01,15.74503956,9.85e-05,53.2177,35.0704,97.6354,300.4717,-0.0065396,-0.00876171,0.0,0 STARLINK-3988,1 52625U 22052AD  22143.83334491 -.00876171  00000-0 -65396-2 0  9991,2 52625  53.2177  35.0704 0000985  97.6354 300.4717 15.74503956  1808,6724.18,91.457,346.707,345.3830000000001,0.0
52625.0,STARLINK-3988,PAYLOAD,2022-05-23 22:00:01,15.74344291,0.0001171,53.2174,34.6577,87.59700000000002,63.174,-0.006557,-0.00872813,0.0,0 STARLINK-3988,1 52625U 22052AD  22143.91668981 -.00872813  00000-0 -65570-2 0  9997,2 52625  53.2174  34.6577 0001171  87.5970  63.1740 15.74344291  1307,6724.635,91.467,347.287,345.712,0.0
52625.0,STARLINK-3988,PAYLOAD,2022-05-24 12:00:00,15.73205568,0.0001134,53.2174,31.7671,101.9051,115.6658,-1.4227e-05,-2.616e-05,0.0,0 STARLINK-3988,1 52625U 22052AD  22144.50001157 -.00002616  00000-0 -14227-4 0  9990,2 52625  53.2174  31.7671 0001134 101.9051 115.6658 15.73205568  1909,6727.879,91.533,350.50699999999995,348.981,0.0
52625.0,STARLINK-3988,PAYLOAD,2022-05-24 14:00:01,15.73203425,0.0001146,53.2172,31.3545,106.5983,223.2072,7.5753e-06,4.44e-06,0.0,0 STARLINK-3988,1 52625U 22052AD  22144.58334491  .00000444  00000-0  75753-5 0  9995,2 52625  53.2172  31.3545 0001146 106.5983 223.2072 15.73203425  1301,6727.885,91.533,350.521,348.97900000000016,0.0
52625.0,STARLINK-3988,PAYLOAD,2022-05-24 20:00:01,15.73275246,0.0001156,53.2143,30.1214,113.0427,193.6689,-0.00030365,-0.00043154,0.0,0 STARLINK-3988,1 52625U 22052AD  22144.83335648 -.00043154  00000-0 -30365-3 0  9993,2 52625  53.2143  30.1214 0001156 113.0427 193.6689 15.73275246  1951,6727.681,91.529,350.3230000000001,348.76800000000014,0.0
52625.0,STARLINK-3988,PAYLOAD,2022-05-24 22:00:00,15.73271056,0.0001163,53.2142,29.7096,107.887,311.0118,-0.00036698,-0.00051962,0.0,0 STARLINK-3988,1 52625U 22052AD  22144.91667824 -.00051962  00000-0 -36698-3 0  9997,2 52625  53.2142  29.7096 0001163 107.8870 311.0118 15.73271056  1300,6727.693,91.529,350.34,348.775,0.0
52625.0,STARLINK-3988,PAYLOAD,2022-05-25 12:00:00,15.73172481,0.0001198,53.2146,26.8212,114.2392,10.3503,-0.00032309,-0.00045664,0.0,0 STARLINK-3988,1 52625U 22052AD  22145.50001157 -.00045664  00000-0 -32309-3 0  9991,2 52625  53.2146  26.8212 0001198 114.2392  10.3503 15.73172481  2064,6727.974,91.535,350.645,349.033,0.0
52625.0,STARLINK-3988,PAYLOAD,2022-05-25 14:00:01,15.73145607,0.0001269,53.2146,26.4084,113.6517,123.1666,-4.7681e-06,-1.287e-05,0.0,0 STARLINK-3988,1 52625U 22052AD  22145.58334491 -.00001287  00000-0 -47681-5 0  9993,2 52625  53.2146  26.4084 0001269 113.6517 123.1666 15.73145607  1307,6728.05,91.536,350.769,349.061,0.0
52625.0,STARLINK-3988,PAYLOAD,2022-05-25 20:00:01,15.73160949,0.0001308,53.2148,25.1728,108.8908,104.5943,0.00027109,0.00037532,0.0,0 STARLINK-3988,1 52625U 22052AD  22145.83334491  .00037532  00000-0  27109-3 0  9992,2 52625  53.2148  25.1728 0001308 108.8908 104.5943 15.73160949  2111,6728.007,91.535,350.75199999999984,348.991,0.0
52625.0,STARLINK-3988,PAYLOAD,2022-05-25 20:37:16,15.73222288,0.0001059,53.2152,25.0437,114.8953,245.2177,0.000176,0.00024175,0.0,0 STARLINK-3988,1 52625U 22052AD  22145.85922039  .00024175  00000-0  17600-3 0  9999,2 52625  53.2152  25.0437 0001059 114.8953 245.2177 15.73222288  1747,6727.831999999999,91.532,350.409,348.9840000000001,0.0
52625.0,STARLINK-3988,PAYLOAD,2022-05-26 08:49:07,15.73200828,0.0001057,53.2153,22.5289,122.2511,237.8611,0.00015124,0.00020658,0.0,0 STARLINK-3988,1 52625U 22052AD  22146.36744898  .00020658  00000-0  15124-3 0  9992,2 52625  53.2153  22.5289 0001057 122.2511 237.8611 15.73200828  1821,6727.893,91.533,350.469,349.047,0.0
52625.0,STARLINK-3988,PAYLOAD,2022-05-26 20:00:01,15.73241189,9.91e-05,53.2144,20.2245,118.8887,1.3711,-0.00025117,-0.00035781,0.0,0 STARLINK-3988,1 52625U 22052AD  22146.83334491 -.00035781  00000-0 -25117-3 0  9996,2 52625  53.2144  20.2245 0000991 118.8887   1.3711 15.73241189  2271,6727.778,91.531,350.309,348.976,0.0
52625.0,STARLINK-3988,PAYLOAD,2022-05-26 22:32:26,15.73236161,0.0001694,53.2156,19.6994,107.0746,253.0459,0.00017421,0.00023937,0.0,0 STARLINK-3988,1 52625U 22052AD  22146.93919671  .00023937  00000-0  17421-3 0  9993,2 52625  53.2156  19.6994 0001694 107.0746 253.0459 15.73236161  1911,6727.792,91.531,350.797,348.517,0.0
52625.0,STARLINK-3988,PAYLOAD,2022-05-27 14:00:01,15.7316644,0.0001267,53.2147,16.5113,117.1844,293.2215,0.00040926,0.00057126,0.0,0 STARLINK-3988,1 52625U 22052AD  22147.58334491  .00057126  00000-0  40926-3 0  9999,2 52625  53.2147  16.5113 0001267 117.1844 293.2215 15.73166440  1308,6727.991,91.535,350.708,349.00300000000016,0.0
52625.0,STARLINK-3988,PAYLOAD,2022-05-27 19:53:09,15.73216704,0.0001258,53.2156,15.2976,111.6489,248.4666,-3.7931e-05,-5.943e-05,0.0,0 STARLINK-3988,1 52625U 22052AD  22147.82857862 -.00005943  00000-0 -37931-4 0  9993,2 52625  53.2156  15.2976 0001258 111.6489 248.4666 15.73216704  2420,6727.848000000001,91.532,350.559,348.866,0.0
52625.0,STARLINK-3988,PAYLOAD,2022-05-27 21:24:37,15.73217623,0.0001301,53.2155,14.9828,115.1859,244.9296,-1.1285e-05,-2.205e-05,0.0,0 STARLINK-3988,1 52625U 22052AD  22147.89210577 -.00002205  00000-0 -11285-4 0  9998,2 52625  53.2155  14.9828 0001301 115.1859 244.9296 15.73217623  2061,6727.845,91.532,350.585,348.835,0.0
52625.0,STARLINK-3988,PAYLOAD,2022-05-28 12:00:00,15.73212518,0.0001008,53.2141,11.975,126.7359,78.3104,0.00056458,0.00079409,0.0,0 STARLINK-3988,1 52625U 22052AD  22148.50001157  .00079409  00000-0  56458-3 0  9997,2 52625  53.2141  11.9750 0001008 126.7359  78.3104 15.73212518  2531,6727.859,91.532,350.403,349.046,0.0
52625.0,STARLINK-3988,PAYLOAD,2022-05-28 14:00:01,15.73250176,0.0001062,53.2142,11.5626,125.4203,191.858,0.00011443,0.00015503,0.0,0 STARLINK-3988,1 52625U 22052AD  22148.58334491  .00015503  00000-0  11443-3 0  9995,2 52625  53.2142  11.5626 0001062 125.4203 191.8580 15.73250176  1309,6727.752,91.53,350.332,348.903,0.0
52625.0,STARLINK-3988,PAYLOAD,2022-05-28 20:00:01,15.73285244,0.0001074,53.2141,10.327,114.4367,179.66299999999995,-0.00058193,-0.00081795,0.0,0 STARLINK-3988,1 52625U 22052AD  22148.83335648 -.00081795  00000-0 -58193-3 0  9999,2 52625  53.2141  10.3270 0001074 114.4367 179.6630 15.73285244  2587,6727.651999999999,91.528,350.24,348.795,0.0
52625.0,STARLINK-3988,PAYLOAD,2022-05-28 21:48:16,15.73255651,7.070000000000001e-05,53.2147,9.9532,114.1204,245.989,0.00010651,0.00014389,0.0,0 STARLINK-3988,1 52625U 22052AD  22148.90852973  .00014389  00000-0  10651-3 0  9992,2 52625  53.2147   9.9532 0000707 114.1204 245.9890 15.73255651  2222,6727.736999999999,91.53,350.077,349.126,0.0
52625.0,STARLINK-3988,PAYLOAD,2022-05-29 12:00:00,15.73158011,0.0001248,53.2143,7.0261,115.2397,356.6774,-0.00056211,-0.00078633,0.0,0 STARLINK-3988,1 52625U 22052AD  22149.50001157 -.00078633  00000-0 -56211-3 0  9995,2 52625  53.2143   7.0261 0001248 115.2397 356.6774 15.73158011  2696,6728.015,91.536,350.72,349.04,0.0
52625.0,STARLINK-3988,PAYLOAD,2022-05-29 14:00:01,15.73148775,0.0001361,53.2145,6.6136,114.174,109.9588,-0.00059524,-0.00083156,0.0,0 STARLINK-3988,1 52625U 22052AD  22149.58334491 -.00083156  00000-0 -59524-3 0  9999,2 52625  53.2145   6.6136 0001361 114.1740 109.9588 15.73148775  1305,6728.041,91.536,350.82199999999995,348.991,0.0
